{
  "type": "FeatureCollection",
  "features": [
    {
      "type": "Feature",
      "properties": {
        "norad_id": 64202,
        "name": "GPS BIII-8  (PRN 21)",
        "group": "gnss",
        "lat": -54.24999811088798,
        "lon": -37.25620489836153,
        "alt_km": 20175.55368529175,
        "timestamp": "2025-12-20T11:30:28.621745+00:00",
        "meta_object_name": "GPS BIII-8  (PRN 21)",
        "meta_object_id": "2025-116A",
        "meta_epoch": "2025-12-20T02:23:29.620032",
        "meta_mean_motion": 2.00557984,
        "meta_eccentricity": 0.0005723,
        "meta_inclination": 55.1107,
        "meta_ra_of_asc_node": 38.344,
        "meta_arg_of_pericenter": 309.6695,
        "meta_mean_anomaly": 54.4969,
        "meta_ephemeris_type": 0,
        "meta_classification_type": "U",
        "meta_norad_cat_id": 64202,
        "meta_element_set_no": 999,
        "meta_rev_at_epoch": 428,
        "meta_bstar": 0,
        "meta_mean_motion_dot": -6.1e-07,
        "meta_mean_motion_ddot": 0,
        "tle_line1": "1 64202U 25116A   25354.09964838 -.00000061  00000+0  00000+0 0  9991",
        "tle_line2": "2 64202  55.1107  38.3440 0005723 309.6695  54.4969  2.00557984  4283"
      },
      "geometry": {
        "type": "Point",
        "coordinates": [
          -37.25620489836153,
          -54.24999811088798
        ]
      }
    },
    {
      "type": "Feature",
      "properties": {
        "norad_id": 65590,
        "name": "COSMOS 2596 (708K)",
        "group": "gnss",
        "lat": -31.429772075397782,
        "lon": 157.95131423443203,
        "alt_km": 19135.23101063033,
        "timestamp": "2025-12-20T11:30:28.621756+00:00",
        "meta_object_name": "COSMOS 2596 (708K)",
        "meta_object_id": "2025-206B",
        "meta_epoch": "2025-12-19T12:37:39.326304",
        "meta_mean_motion": 2.13100498,
        "meta_eccentricity": 0.0014057,
        "meta_inclination": 64.7407,
        "meta_ra_of_asc_node": 321.239,
        "meta_arg_of_pericenter": 306.9222,
        "meta_mean_anomaly": 257.0198,
        "meta_ephemeris_type": 0,
        "meta_classification_type": "U",
        "meta_norad_cat_id": 65590,
        "meta_element_set_no": 999,
        "meta_rev_at_epoch": 208,
        "meta_bstar": 0,
        "meta_mean_motion_dot": -5.9e-07,
        "meta_mean_motion_ddot": 0,
        "tle_line1": "1 65590U 25206B   25353.52614961 -.00000059  00000+0  00000+0 0  9995",
        "tle_line2": "2 65590  64.7407 321.2390 0014057 306.9222 257.0198  2.13100498  2086"
      },
      "geometry": {
        "type": "Point",
        "coordinates": [
          157.95131423443203,
          -31.429772075397782
        ]
      }
    },
    {
      "type": "Feature",
      "properties": {
        "norad_id": 67160,
        "name": "GALILEO A",
        "group": "gnss",
        "lat": 10.120848659106771,
        "lon": 114.55821901345692,
        "alt_km": 22960.272619922987,
        "timestamp": "2025-12-20T11:30:28.621767+00:00",
        "meta_object_name": "GALILEO A",
        "meta_object_id": "2025-302A",
        "meta_epoch": "2025-12-18T03:30:19.486368",
        "meta_mean_motion": 1.72906186,
        "meta_eccentricity": 0.00084238,
        "meta_inclination": 54.2406,
        "meta_ra_of_asc_node": 107.2544,
        "meta_arg_of_pericenter": 237.6458,
        "meta_mean_anomaly": 122.2317,
        "meta_ephemeris_type": 0,
        "meta_classification_type": "U",
        "meta_norad_cat_id": 67160,
        "meta_element_set_no": 999,
        "meta_rev_at_epoch": 2,
        "meta_bstar": 0,
        "meta_mean_motion_dot": -7e-08,
        "meta_mean_motion_ddot": 0,
        "tle_line1": "1 67160U 25302A   25352.14605887 -.00000007  00000+0  00000+0 0  9994",
        "tle_line2": "2 67160  54.2406 107.2544 0008423 237.6458 122.2317  1.72906186    28"
      },
      "geometry": {
        "type": "Point",
        "coordinates": [
          114.55821901345692,
          10.120848659106771
        ]
      }
    },
    {
      "type": "Feature",
      "properties": {
        "norad_id": 67161,
        "name": "GALILEO B",
        "group": "gnss",
        "lat": 10.710455522178869,
        "lon": 114.97602698693063,
        "alt_km": 22941.667148554858,
        "timestamp": "2025-12-20T11:30:28.621780+00:00",
        "meta_object_name": "GALILEO B",
        "meta_object_id": "2025-302B",
        "meta_epoch": "2025-12-19T07:14:53.290752",
        "meta_mean_motion": 1.72972192,
        "meta_eccentricity": 0.00045866,
        "meta_inclination": 54.2272,
        "meta_ra_of_asc_node": 107.1916,
        "meta_arg_of_pericenter": 255.0301,
        "meta_mean_anomaly": 104.8802,
        "meta_ephemeris_type": 0,
        "meta_classification_type": "U",
        "meta_norad_cat_id": 67161,
        "meta_element_set_no": 999,
        "meta_rev_at_epoch": 5,
        "meta_bstar": 0,
        "meta_mean_motion_dot": -5e-08,
        "meta_mean_motion_ddot": 0,
        "tle_line1": "1 67161U 25302B   25353.30200568 -.00000005  00000+0  00000+0 0  9999",
        "tle_line2": "2 67161  54.2272 107.1916 0004586 255.0301 104.8802  1.72972192    57"
      },
      "geometry": {
        "type": "Point",
        "coordinates": [
          114.97602698693063,
          10.710455522178869
        ]
      }
    }
  ]
}